{
  "type": "FeatureCollection",
  "features": [
    {
      "type": "Feature",
      "properties": {
        "norad_id": 43567,
        "name": "GSAT0220 (GALILEO 24)",
        "group": "gnss",
        "lat": 20.869694799145996,
        "lon": 152.2135919454064,
        "alt_km": 23232.01761759886,
        "timestamp": "2025-12-26T22:28:06.027575+00:00",
        "meta_object_name": "GSAT0220 (GALILEO 24)",
        "meta_object_id": "2018-060D",
        "meta_epoch": "2025-12-23T03:56:18.956256",
        "meta_mean_motion": 1.70475727,
        "meta_eccentricity": 0.00061193,
        "meta_inclination": 57.2279,
        "meta_ra_of_asc_node": 346.5416,
        "meta_arg_of_pericenter": 288.3355,
        "meta_mean_anomaly": 71.6054,
        "meta_ephemeris_type": 0,
        "meta_classification_type": "U",
        "meta_norad_cat_id": 43567,
        "meta_element_set_no": 999,
        "meta_rev_at_epoch": 4617,
        "meta_bstar": 0,
        "meta_mean_motion_dot": -6.3e-07,
        "meta_mean_motion_ddot": 0,
        "tle_line1": "1 43567U 18060D   25357.16410829 -.00000063  00000+0  00000+0 0  9991",
        "tle_line2": "2 43567  57.2279 346.5416 0006119 288.3355  71.6054  1.70475727 46170"
      },
      "geometry": {
        "type": "Point",
        "coordinates": [
          152.2135919454064,
          20.869694799145996
        ]
      }
    },
    {
      "type": "Feature",
      "properties": {
        "norad_id": 43581,
        "name": "BEIDOU-3 M5 (C23)",
        "group": "gnss",
        "lat": 39.193619633165945,
        "lon": -28.06851809849067,
        "alt_km": 21526.788313748384,
        "timestamp": "2025-12-26T22:28:06.027588+00:00",
        "meta_object_name": "BEIDOU-3 M5 (C23)",
        "meta_object_id": "2018-062A",
        "meta_epoch": "2025-12-26T04:58:35.645664",
        "meta_mean_motion": 1.86228653,
        "meta_eccentricity": 0.0001914,
        "meta_inclination": 54.0903,
        "meta_ra_of_asc_node": 188.1851,
        "meta_arg_of_pericenter": 0.5751,
        "meta_mean_anomaly": 359.4593,
        "meta_ephemeris_type": 0,
        "meta_classification_type": "U",
        "meta_norad_cat_id": 43581,
        "meta_element_set_no": 999,
        "meta_rev_at_epoch": 5041,
        "meta_bstar": 0,
        "meta_mean_motion_dot": 1.19e-06,
        "meta_mean_motion_ddot": 0,
        "tle_line1": "1 43581U 18062A   25360.20735701  .00000119  00000+0  00000+0 0  9998",
        "tle_line2": "2 43581  54.0903 188.1851 0001914   0.5751 359.4593  1.86228653 50418"
      },
      "geometry": {
        "type": "Point",
        "coordinates": [
          -28.06851809849067,
          39.193619633165945
        ]
      }
    },
    {
      "type": "Feature",
      "properties": {
        "norad_id": 43582,
        "name": "BEIDOU-3 M6 (C24)",
        "group": "gnss",
        "lat": -31.80587465875622,
        "lon": 34.866519786319465,
        "alt_km": 21553.874286244965,
        "timestamp": "2025-12-26T22:28:06.027602+00:00",
        "meta_object_name": "BEIDOU-3 M6 (C24)",
        "meta_object_id": "2018-062B",
        "meta_epoch": "2025-12-23T22:08:28.739040",
        "meta_mean_motion": 1.86229712,
        "meta_eccentricity": 0.00078704,
        "meta_inclination": 54.0895,
        "meta_ra_of_asc_node": 188.252,
        "meta_arg_of_pericenter": 49.2706,
        "meta_mean_anomaly": 310.8346,
        "meta_ephemeris_type": 0,
        "meta_classification_type": "U",
        "meta_norad_cat_id": 43582,
        "meta_element_set_no": 999,
        "meta_rev_at_epoch": 5037,
        "meta_bstar": 0,
        "meta_mean_motion_dot": 1e-06,
        "meta_mean_motion_ddot": 0,
        "tle_line1": "1 43582U 18062B   25357.92255485  .00000100  00000+0  00000+0 0  9990",
        "tle_line2": "2 43582  54.0895 188.2520 0007870  49.2706 310.8346  1.86229712 50379"
      },
      "geometry": {
        "type": "Point",
        "coordinates": [
          34.866519786319465,
          -31.80587465875622
        ]
      }
    },
    {
      "type": "Feature",
      "properties": {
        "norad_id": 43602,
        "name": "BEIDOU-3 M12 (C26)",
        "group": "gnss",
        "lat": -53.41073478647802,
        "lon": 83.55274919302431,
        "alt_km": 21553.79777799891,
        "timestamp": "2025-12-26T22:28:06.027618+00:00",
        "meta_object_name": "BEIDOU-3 M12 (C26)",
        "meta_object_id": "2018-067A",
        "meta_epoch": "2025-12-26T13:05:12.985152",
        "meta_mean_motion": 1.86227811,
        "meta_eccentricity": 0.0009236,
        "meta_inclination": 54.1838,
        "meta_ra_of_asc_node": 186.8947,
        "meta_arg_of_pericenter": 41.8469,
        "meta_mean_anomaly": 318.2561,
        "meta_ephemeris_type": 0,
        "meta_classification_type": "U",
        "meta_norad_cat_id": 43602,
        "meta_element_set_no": 999,
        "meta_rev_at_epoch": 4990,
        "meta_bstar": 0,
        "meta_mean_motion_dot": 1.23e-06,
        "meta_mean_motion_ddot": 0,
        "tle_line1": "1 43602U 18067A   25360.54528918  .00000123  00000+0  00000+0 0  9999",
        "tle_line2": "2 43602  54.1838 186.8947 0009236  41.8469 318.2561  1.86227811 49905"
      },
      "geometry": {
        "type": "Point",
        "coordinates": [
          83.55274919302431,
          -53.41073478647802
        ]
      }
    },
    {
      "type": "Feature",
      "properties": {
        "norad_id": 43603,
        "name": "BEIDOU-3 M11 (C25)",
        "group": "gnss",
        "lat": 6.476836054163585,
        "lon": 2.142680463355387,
        "alt_km": 21538.728775503234,
        "timestamp": "2025-12-26T22:28:06.027630+00:00",
        "meta_object_name": "BEIDOU-3 M11 (C25)",
        "meta_object_id": "2018-067B",
        "meta_epoch": "2025-12-24T12:46:04.310976",
        "meta_mean_motion": 1.86227356,
        "meta_eccentricity": 0.00056287,
        "meta_inclination": 54.181,
        "meta_ra_of_asc_node": 186.927,
        "meta_arg_of_pericenter": 37.873,
        "meta_mean_anomaly": 322.1992,
        "meta_ephemeris_type": 0,
        "meta_classification_type": "U",
        "meta_norad_cat_id": 43603,
        "meta_element_set_no": 999,
        "meta_rev_at_epoch": 4989,
        "meta_bstar": 0,
        "meta_mean_motion_dot": 1.05e-06,
        "meta_mean_motion_ddot": 0,
        "tle_line1": "1 43603U 18067B   25358.53199434  .00000105  00000+0  00000+0 0  9993",
        "tle_line2": "2 43603  54.1810 186.9270 0005628  37.8730 322.1992  1.86227356 49897"
      },
      "geometry": {
        "type": "Point",
        "coordinates": [
          2.142680463355387,
          6.476836054163585
        ]
      }
    },
    {
      "type": "Feature",
      "properties": {
        "norad_id": 43622,
        "name": "BEIDOU-3 M13 (C32)",
        "group": "gnss",
        "lat": -17.366688806510496,
        "lon": -99.6805507711582,
        "alt_km": 21532.669091190553,
        "timestamp": "2025-12-26T22:28:06.027641+00:00",
        "meta_object_name": "BEIDOU-3 M13 (C32)",
        "meta_object_id": "2018-072A",
        "meta_epoch": "2025-12-26T15:16:14.790720",
        "meta_mean_motion": 1.86231078,
        "meta_eccentricity": 0.0006463,
        "meta_inclination": 56.4705,
        "meta_ra_of_asc_node": 68.3604,
        "meta_arg_of_pericenter": 297.862,
        "meta_mean_anomaly": 62.1239,
        "meta_ephemeris_type": 0,
        "meta_classification_type": "U",
        "meta_norad_cat_id": 43622,
        "meta_element_set_no": 999,
        "meta_rev_at_epoch": 4944,
        "meta_bstar": 0,
        "meta_mean_motion_dot": -3.2e-07,
        "meta_mean_motion_ddot": 0,
        "tle_line1": "1 43622U 18072A   25360.63628230 -.00000032  00000+0  00000+0 0  9995",
        "tle_line2": "2 43622  56.4705  68.3604 0006463 297.8620  62.1239  1.86231078 49446"
      },
      "geometry": {
        "type": "Point",
        "coordinates": [
          -99.6805507711582,
          -17.366688806510496
        ]
      }
    },
    {
      "type": "Feature",
      "properties": {
        "norad_id": 43623,
        "name": "BEIDOU-3 M14 (C33)",
        "group": "gnss",
        "lat": -50.99976367828302,
        "lon": 13.499474226142196,
        "alt_km": 21525.57931186116,
        "timestamp": "2025-12-26T22:28:06.027653+00:00",
        "meta_object_name": "BEIDOU-3 M14 (C33)",
        "meta_object_id": "2018-072B",
        "meta_epoch": "2025-12-23T06:43:13.861056",
        "meta_mean_motion": 1.86231163,
        "meta_eccentricity": 0.00035931,
        "meta_inclination": 56.4696,
        "meta_ra_of_asc_node": 68.4654,
        "meta_arg_of_pericenter": 327.0772,
        "meta_mean_anomaly": 32.9541,
        "meta_ephemeris_type": 0,
        "meta_classification_type": "U",
        "meta_norad_cat_id": 43623,
        "meta_element_set_no": 999,
        "meta_rev_at_epoch": 4937,
        "meta_bstar": 0,
        "meta_mean_motion_dot": -2.6e-07,
        "meta_mean_motion_ddot": 0,
        "tle_line1": "1 43623U 18072B   25357.28002154 -.00000026  00000+0  00000+0 0  9997",
        "tle_line2": "2 43623  56.4696  68.4654 0003593 327.0772  32.9541  1.86231163 49375"
      },
      "geometry": {
        "type": "Point",
        "coordinates": [
          13.499474226142196,
          -50.99976367828302
        ]
      }
    }
  ]
}